[{"OBJECT_NAME":"STARLINK-34684","OBJECT_ID":"2025-152W","EPOCH":"2026-03-09T20:20:40.288992","MEAN_MOTION":15.05599692,"ECCENTRICITY":0.00022225,"INCLINATION":97.6016,"RA_OF_ASC_NODE":285.7091,"ARG_OF_PERICENTER":78.8862,"MEAN_ANOMALY":281.2614,"EPHEMERIS_TYPE":0,"CLASSIFICATION_TYPE":"U","NORAD_CAT_ID":64862,"ELEMENT_SET_NO":999,"REV_AT_EPOCH":3544,"BSTAR":-0.0011068116,"MEAN_MOTION_DOT":-0.00015974,"MEAN_MOTION_DDOT":0},{"OBJECT_NAME":"COSMOS 1275 DEB","OBJECT_ID":"1981-053RH","EPOCH":"2026-03-08T19:02:02.535360","MEAN_MOTION":15.08606043,"ECCENTRICITY":0.00097404,"INCLINATION":83.3308,"RA_OF_ASC_NODE":196.5935,"ARG_OF_PERICENTER":282.896,"MEAN_ANOMALY":77.1182,"EPHEMERIS_TYPE":0,"CLASSIFICATION_TYPE":"U","NORAD_CAT_ID":42145,"ELEMENT_SET_NO":999,"REV_AT_EPOCH":64889,"BSTAR":0.0090120528,"MEAN_MOTION_DOT":0.00143721,"MEAN_MOTION_DDOT":0}]
